#cV2022  1 16  0  0  0.00000000    1956   SLR   ECF FIT NSGF
## 2193      0.00000000   180.00000000 59595 0.0000000000000
+    1   L56  0  0  0  0  0  0  0  0  0  0  0  0  0  0  0  0
+          0  0  0  0  0  0  0  0  0  0  0  0  0  0  0  0  0
+          0  0  0  0  0  0  0  0  0  0  0  0  0  0  0  0  0
+          0  0  0  0  0  0  0  0  0  0  0  0  0  0  0  0  0
+          0  0  0  0  0  0  0  0  0  0  0  0  0  0  0  0  0
++         0  0  0  0  0  0  0  0  0  0  0  0  0  0  0  0  0
++         0  0  0  0  0  0  0  0  0  0  0  0  0  0  0  0  0
++         0  0  0  0  0  0  0  0  0  0  0  0  0  0  0  0  0
++         0  0  0  0  0  0  0  0  0  0  0  0  0  0  0  0  0
++         0  0  0  0  0  0  0  0  0  0  0  0  0  0  0  0  0
%c L  cc UTC ccc cccc cccc cccc cccc ccccc ccccc ccccc ccccc
%c cc cc ccc ccc cccc cccc cccc cccc ccccc ccccc ccccc ccccc
%f  0.0000000  0.000000000  0.00000000000  0.000000000000000
%f  0.0000000  0.000000000  0.00000000000  0.000000000000000
%i    0    0    0    0      0      0      0      0         0
%i    0    0    0    0      0      0      0      0         0
/*                                                          
/* Earth-centered-fixed orbital predictions from SGF ILRS AC
/* The underlying ECF frame is that of IERS/ITRF            
/* Note: Solution based on 4-day long arc                   
/*                                                          
*  2022  1 18 13 12  0.00000000
PL56   -674.839185  -6434.139004   3105.763368
VL56 -20832.023000 -29817.179000 -66174.785000
*  2022  1 18 13 15  0.00000000
PL56  -1041.929702  -6851.330712   1867.303665
VL56 -19778.664000 -16406.825000 -71030.060000
*  2022  1 18 13 18  0.00000000
PL56  -1380.587448  -7021.599006    563.588204
VL56 -17679.784000  -2466.242500 -73403.869000
*  2022  1 18 13 21  0.00000000
PL56  -1672.518208  -6940.023795   -759.824905
VL56 -14601.991000  11489.458000 -73212.399000
*  2022  1 18 13 24  0.00000000
PL56  -1901.064542  -6610.971552  -2056.700012
VL56 -10659.940000  24946.990000 -70464.367000
*  2022  1 18 13 27  0.00000000
PL56  -2052.030760  -6047.873084  -3281.788656
VL56  -6011.576800  37415.750000 -65260.350000
*  2022  1 18 13 30  0.00000000
PL56  -2114.404283  -5272.641190  -4392.448105
VL56   -851.312020  48447.030000 -57788.205000
*  2022  1 18 13 33  0.00000000
PL56  -2080.936040  -4314.758276  -5350.142301
VL56   4598.662900  57650.997000 -48314.682000
*  2022  1 18 13 36  0.00000000
PL56  -1948.554048  -3210.091160  -6121.764397
VL56  10098.097000  64710.047000 -37174.283000
*  2022  1 18 13 39  0.00000000
PL56  -1718.596162  -1999.495956  -6680.744014
VL56  15399.017000  69388.827000 -24756.507000
*  2022  1 18 13 42  0.00000000
PL56  -1396.854182   -727.272839  -7007.910244
VL56  20256.232000  71540.770000 -11491.565000
*  2022  1 18 13 45  0.00000000
PL56   -993.432299    560.464132  -7092.093204
VL56  24437.435000  71111.155000   2164.160000
*  2022  1 18 13 48  0.00000000
PL56   -522.426607   1817.443932  -6930.463641
VL56  27732.969000  68137.075000  15742.708000
*  2022  1 18 13 51  0.00000000
PL56     -1.435736   2998.874980  -6528.612953
VL56  29964.752000  62745.243000  28778.811000
*  2022  1 18 13 54  0.00000000
PL56    549.083354   4063.020536  -5900.375557
VL56  30994.585000  55147.420000  40824.302000
*  2022  1 18 13 57  0.00000000
PL56   1106.599640   4972.669812  -5067.389286
VL56  30731.252000  45633.291000  51462.666000
*  2022  1 18 14  0  0.00000000
PL56   1647.405421   5696.456371  -4058.398788
VL56  29136.013000  34560.722000  60323.098000
*  2022  1 18 14  3  0.00000000
PL56   2147.597744   6209.979459  -2908.309693
VL56  26226.330000  22343.513000  67093.945000
*  2022  1 18 14  6  0.00000000
PL56   2584.105097   6496.678369  -1657.013042
VL56  22077.165000   9436.365700  71534.792000
*  2022  1 18 14  9  0.00000000
PL56   2935.715556   6548.419419   -348.010588
VL56  16819.718000  -3682.150800  73486.353000
*  2022  1 18 14 12  0.00000000
PL56   3184.055825   6365.756934    973.114426
VL56  10637.262000 -16528.482000  72877.432000
*  2022  1 18 14 15  0.00000000
PL56   3314.471085   5957.850261   2260.315571
VL56   3758.369600 -28633.198000  69727.979000
*  2022  1 18 14 18  0.00000000
PL56   3316.762502   5342.042671   3468.723883
VL56  -3552.096900 -39559.408000  64148.466000
*  2022  1 18 14 21  0.00000000
PL56   3185.746193   4543.119775   4556.244494
VL56 -11003.693000 -48919.731000  56335.590000
*  2022  1 18 14 24  0.00000000
PL56   2921.604968   3592.283961   5485.042818
VL56 -18292.731000 -56390.729000  46564.482000
*  2022  1 18 14 27  0.00000000
PL56   2530.011559   2525.895788   6222.857584
VL56 -25114.925000 -61724.212000  35177.179000
*  2022  1 18 14 30  0.00000000
PL56   2022.031533   1384.051755   6744.094864
VL56 -31177.357000 -64754.232000  22570.208000
*  2022  1 18 14 33  0.00000000
PL56   1413.809502    209.056813   7030.683633
VL56 -36210.521000 -65401.715000   9180.514700
*  2022  1 18 14 36  0.00000000
PL56    726.048942   -956.147098   7072.669796
VL56 -39979.123000 -63674.941000  -4529.352000
*  2022  1 18 14 39  0.00000000
PL56    -16.694257  -2069.545725   6868.547735
VL56 -42291.985000 -59668.236000 -18085.803000
*  2022  1 18 14 42  0.00000000
PL56   -786.886699  -3091.566448   6425.316831
VL56 -43010.789000 -53557.682000 -31020.058000
*  2022  1 18 14 45  0.00000000
PL56  -1555.030890  -3986.488960   5758.257926
VL56 -42056.509000 -45593.762000 -42883.246000
*  2022  1 18 14 48  0.00000000
PL56  -2290.783121  -4723.707594   4890.442656
VL56 -39414.891000 -36092.618000 -53260.910000
*  2022  1 18 14 51  0.00000000
PL56  -2964.151479  -5278.814335   3851.982384
VL56 -35139.655000 -25424.683000 -61787.804000
*  2022  1 18 14 54  0.00000000
PL56  -3546.727216  -5634.456330   2679.012512
VL56 -29352.693000 -14000.872000 -68162.068000
*  2022  1 18 14 57  0.00000000
PL56  -4012.887769  -5780.920647   1412.440695
VL56 -22240.945000  -2256.411500 -72157.054000
*  2022  1 18 15  0  0.00000000
PL56  -4340.918839  -5716.420413     96.505151
VL56 -14050.477000   9366.221800 -73630.658000
*  2022  1 18 15  3  0.00000000
PL56  -4514.002058  -5447.064406  -1222.806756
VL56  -5077.481700  20435.184000 -72531.365000
*  2022  1 18 15  6  0.00000000
PL56  -4521.015505  -4986.506323  -2499.416648
VL56   4343.469200  30546.884000 -68900.590000
*  2022  1 18 15  9  0.00000000
PL56  -4357.102377  -4355.286577  -3688.815301
VL56  13853.244000  39342.218000 -62870.543000
*  2022  1 18 15 12  0.00000000
PL56  -4023.980035  -3579.905420  -4749.646265
VL56  23083.000000  46520.046000 -54658.007000
*  2022  1 18 15 15  0.00000000
PL56  -3529.981001  -2691.682759  -5645.148582
VL56  31669.008000  51847.440000 -44555.049000
*  2022  1 18 15 18  0.00000000
PL56  -2889.830606  -1725.462804  -6344.408324
VL56  39266.982000  55166.598000 -32917.133000
*  2022  1 18 15 21  0.00000000
PL56  -2124.177193   -718.225630  -6823.382130
VL56  45565.207000  56398.326000 -20149.834000
*  2022  1 18 15 24  0.00000000
PL56  -1258.896942    292.335501  -7065.668289
VL56  50296.292000  55542.342000  -6694.196800
*  2022  1 18 15 27  0.00000000
PL56   -324.206378   1269.213574  -7063.013547
VL56  53246.871000  52674.567000   6987.804500
*  2022  1 18 15 30  0.00000000
PL56    646.386364   2177.421060  -6815.561887
VL56  54265.793000  47942.483000  20427.556000
*  2022  1 18 15 33  0.00000000
PL56   1617.264986   2985.222839  -6331.846297
VL56  53270.997000  41558.827000  33163.959000
*  2022  1 18 15 36  0.00000000
PL56   2551.995239   3665.237434  -5628.518508
VL56  50254.265000  33793.068000  44758.441000
*  2022  1 18 15 39  0.00000000
PL56   3414.679057   4195.369844  -4729.815805
VL56  45283.557000  24961.254000  54809.073000
*  2022  1 18 15 42  0.00000000
PL56   4171.330274   4559.549099  -3666.776146
VL56  38503.142000  15414.605000  62964.449000
*  2022  1 18 15 45  0.00000000
PL56   4791.224792   4748.242571  -2476.209219
VL56  30130.427000   5526.046100  68936.770000
*  2022  1 18 15 48  0.00000000
PL56   5248.166181   4758.718556  -1199.444930
VL56  20449.726000  -4324.149400  72513.210000
*  2022  1 18 15 51  0.00000000
PL56   5521.607009   4595.041469    119.101030
VL56   9802.507300 -13763.677000  73565.005000
*  2022  1 18 15 54  0.00000000
PL56   5597.566914   4267.795175   1433.493494
VL56  -1425.309000 -22442.883000  72052.765000
*  2022  1 18 15 57  0.00000000
PL56   5469.303309   3793.546226   2697.911036
VL56 -12818.079000 -30048.903000  68028.524000
*  2022  1 18 16  0  0.00000000
PL56   5137.698339   3194.067783   3868.282415
VL56 -23947.190000 -36317.960000  61634.039000
*  2022  1 18 16  3  0.00000000
PL56   4611.336216   2495.363586   4903.852695
VL56 -34388.281000 -41045.130000  53094.743000
*  2022  1 18 16  6  0.00000000
PL56   3906.274697   1726.543235   5768.610932
VL56 -43738.044000 -44091.103000  42710.723000
*  2022  1 18 16  9  0.00000000
PL56   3045.524585    918.607175   6432.533209
VL56 -51629.770000 -45385.494000  30844.686000
*  2022  1 18 16 12  0.00000000
PL56   2058.262657    103.192919   6872.595191
VL56 -57747.005000 -44927.589000  17909.311000
*  2022  1 18 16 15  0.00000000
PL56    978.821095   -688.659059   7073.534614
VL56 -61835.190000 -42783.940000   4352.296800
*  2022  1 18 16 18  0.00000000
PL56   -154.515964  -1427.680372   7028.357545
VL56 -63711.265000 -39084.017000  -9358.040100
*  2022  1 18 16 21  0.00000000
PL56  -1300.871717  -2087.453414   6738.570080
VL56 -63271.222000 -34013.876000 -22748.072000
*  2022  1 18 16 24  0.00000000
PL56  -2418.244559  -2645.356053   6214.132573
VL56 -60494.680000 -27807.646000 -35354.599000
*  2022  1 18 16 27  0.00000000
PL56  -3465.039131  -3083.343101   5473.146854
VL56 -55447.462000 -20738.083000 -46738.702000
*  2022  1 18 16 30  0.00000000
PL56  -4401.627771  -3388.547961   4541.276693
VL56 -48282.045000 -13105.877000 -56501.650000
*  2022  1 18 16 33  0.00000000
PL56  -5191.880286  -3553.676246   3450.892481
VL56 -39233.682000  -5227.376700 -64299.287000
EOF
